LANDSAT 8
1 39084U 13008A   20226.39437923 -.00000045  00000-0  18034-6 0  9990
2 39084  98.2225 295.3798 0001691  89.4393 270.6987 14.57108667398992
ISS (ZARYA)
1 25544U 98067A   20226.06311231  .00000634  00000-0  19556-4 0  9992
2 25544  51.6462  66.9823 0001637  29.7739 108.2756 15.49160058240839
YAOGAN 26
1 40362U 14088A   20240.21689146  .00000620  00000-0  28667-4 0  9992
2 40362  97.2418 305.7653 0008184 243.3634 191.7549 15.23672788315647
YAOGAN 22
1 40275U 14063A   20226.23756527 -.00000007  00000-0  10000-3 0  9993
2 40275 100.5031 339.5638 0005893 337.0357  23.0486 13.15423213279231
YAOGAN 24
1 40310U 14072A   20226.39523817  .00000056  00000-0  15486-4 0  9991
2 40310  97.9057 347.2171 0018376 288.6072  71.3148 14.76296956308932
YAOGAN 28
1 41026U 15064A   20226.28932220  .00000573  00000-0  26969-4 0  9990
2 41026  97.4620 357.7219 0000706 162.6939 284.0848 15.23521731265744
YAOGAN 29
1 41038U 15069A   20226.41540802  .00000009  00000-0  81055-5 0  9996
2 41038  98.0132 214.3022 0002326  74.4495 285.6977 14.80455372254702
SENTINEL-1B
1 41456U 16025A   20226.38992877 -.00000060  00000-0 -30364-5 0  9998
2 41456  98.1823 232.3925 0001355  87.4475 272.6880 14.59197428229037
TERRASAR-X
1 31698U 07026A   20226.47843528 -.00001411  00000-0 -64038-4 0  9999
2 31698  97.4475 232.6910 0001641  97.1809  31.6876 15.19144118729952
YAOGAN 12
1 37875U 11066B   20226.26787257  .00000575  00000-0  26999-4 0  9996
2 37875  97.3864 300.7789 0007533 296.7474 134.8085 15.23567978487652
YAOGAN 12-T
1 37875U 11066B   20240.38759324  .00000587  00000-0  27483-4 0  9991
2 37875  97.3852 314.6797 0007596 236.4748 190.2982 15.23584223489809
YAOGAN 26-T
1 40362U 14088A   20240.41050089  .00000608  00000-0  28174-4 0  9991
2 40362  97.2418 305.9522 0008186 242.5404 173.8848 15.23672957315676
YAOGAN 22-T
1 40275U 14063A   20240.38427648 -.00000007  00000-0  10000-3 0  9994
2 40275 100.5045 353.5903 0005627 302.1925  57.8640 13.15423411281090
SENTINEL-1B-T
1 41456U 16025A   20240.85851224 -.00000138  00000-0 -19560-4 0  9996
2 41456  98.1819 246.6567 0001375  82.3634 277.7737 14.59196126231141
TERRASAR-X-T
1 31698U 07026A   20240.64105324  .00000317  00000-0  18267-4 0  9994
2 31698  97.4460 246.6551 0001683  89.7421  44.2363 15.19155746732106
